[{"OBJECT_NAME":"FLOCK 4G-13","OBJECT_ID":"2025-009N","EPOCH":"2026-04-27T04:30:38.353824","MEAN_MOTION":15.38268715,"ECCENTRICITY":0.0005671,"INCLINATION":97.3973,"RA_OF_ASC_NODE":199.7944,"ARG_OF_PERICENTER":146.6125,"MEAN_ANOMALY":213.5478,"EPHEMERIS_TYPE":0,"CLASSIFICATION_TYPE":"U","NORAD_CAT_ID":62621,"ELEMENT_SET_NO":999,"REV_AT_EPOCH":7114,"BSTAR":0.0020306,"MEAN_MOTION_DOT":0.00077199,"MEAN_MOTION_DDOT":0},{"OBJECT_NAME":"FLOCK 4G-9","OBJECT_ID":"2025-009P","EPOCH":"2026-04-27T04:18:29.492064","MEAN_MOTION":15.27162374,"ECCENTRICITY":0.0005973,"INCLINATION":97.3963,"RA_OF_ASC_NODE":198.5399,"ARG_OF_PERICENTER":135.0615,"MEAN_ANOMALY":225.1109,"EPHEMERIS_TYPE":0,"CLASSIFICATION_TYPE":"U","NORAD_CAT_ID":62622,"ELEMENT_SET_NO":999,"REV_AT_EPOCH":7107,"BSTAR":0.0004512,"MEAN_MOTION_DOT":0.00011955,"MEAN_MOTION_DDOT":0},{"OBJECT_NAME":"FLOCK 4G-7","OBJECT_ID":"2025-009R","EPOCH":"2026-04-27T04:53:13.748640","MEAN_MOTION":15.28242699,"ECCENTRICITY":0.0004227,"INCLINATION":97.395,"RA_OF_ASC_NODE":198.8524,"ARG_OF_PERICENTER":128.5707,"MEAN_ANOMALY":231.5911,"EPHEMERIS_TYPE":0,"CLASSIFICATION_TYPE":"U","NORAD_CAT_ID":62624,"ELEMENT_SET_NO":999,"REV_AT_EPOCH":7111,"BSTAR":0.00048214,"MEAN_MOTION_DOT":0.00013206,"MEAN_MOTION_DDOT":0},{"OBJECT_NAME":"FLOCK 4G-12","OBJECT_ID":"2025-009S","EPOCH":"2026-04-27T04:37:45.971616","MEAN_MOTION":15.28105732,"ECCENTRICITY":0.000573,"INCLINATION":97.4024,"RA_OF_ASC_NODE":199.3235,"ARG_OF_PERICENTER":126.4101,"MEAN_ANOMALY":233.7668,"EPHEMERIS_TYPE":0,"CLASSIFICATION_TYPE":"U","NORAD_CAT_ID":62625,"ELEMENT_SET_NO":999,"REV_AT_EPOCH":7111,"BSTAR":0.00053996,"MEAN_MOTION_DOT":0.00014743,"MEAN_MOTION_DDOT":0},{"OBJECT_NAME":"FLOCK 4G-11","OBJECT_ID":"2025-009W","EPOCH":"2026-04-27T04:26:58.294752","MEAN_MOTION":15.28294353,"ECCENTRICITY":0.0004235,"INCLINATION":97.3924,"RA_OF_ASC_NODE":198.9592,"ARG_OF_PERICENTER":130.1073,"MEAN_ANOMALY":230.0539,"EPHEMERIS_TYPE":0,"CLASSIFICATION_TYPE":"U","NORAD_CAT_ID":62629,"ELEMENT_SET_NO":999,"REV_AT_EPOCH":7112,"BSTAR":0.0004904,"MEAN_MOTION_DOT":0.00013456,"MEAN_MOTION_DDOT":0},{"OBJECT_NAME":"PELICAN-2","OBJECT_ID":"2025-009Y","EPOCH":"2026-04-27T04:32:01.006656","MEAN_MOTION":15.40509057,"ECCENTRICITY":0.0003642,"INCLINATION":97.3614,"RA_OF_ASC_NODE":208.0019,"ARG_OF_PERICENTER":95.8111,"MEAN_ANOMALY":264.355,"EPHEMERIS_TYPE":0,"CLASSIFICATION_TYPE":"U","NORAD_CAT_ID":62631,"ELEMENT_SET_NO":999,"REV_AT_EPOCH":7170,"BSTAR":0.0014646,"MEAN_MOTION_DOT":0.00059734,"MEAN_MOTION_DDOT":0},{"OBJECT_NAME":"FLOCK 4G-26","OBJECT_ID":"2025-009AA","EPOCH":"2026-04-27T04:54:57.724128","MEAN_MOTION":15.28359662,"ECCENTRICITY":0.0004993,"INCLINATION":97.4021,"RA_OF_ASC_NODE":199.469,"ARG_OF_PERICENTER":120.1491,"MEAN_ANOMALY":240.0244,"EPHEMERIS_TYPE":0,"CLASSIFICATION_TYPE":"U","NORAD_CAT_ID":62633,"ELEMENT_SET_NO":999,"REV_AT_EPOCH":7112,"BSTAR":0.000462,"MEAN_MOTION_DOT":0.00012697,"MEAN_MOTION_DDOT":0},{"OBJECT_NAME":"FLOCK 4G-28","OBJECT_ID":"2025-009AB","EPOCH":"2026-04-27T04:32:05.128800","MEAN_MOTION":15.34001095,"ECCENTRICITY":0.0003424,"INCLINATION":97.4024,"RA_OF_ASC_NODE":201.5802,"ARG_OF_PERICENTER":116.9833,"MEAN_ANOMALY":243.1759,"EPHEMERIS_TYPE":0,"CLASSIFICATION_TYPE":"U","NORAD_CAT_ID":62634,"ELEMENT_SET_NO":999,"REV_AT_EPOCH":7126,"BSTAR":0.00033685,"MEAN_MOTION_DOT":0.00011007,"MEAN_MOTION_DDOT":0},{"OBJECT_NAME":"FLOCK 4G-20","OBJECT_ID":"2025-009AD","EPOCH":"2026-04-27T04:07:31.810080","MEAN_MOTION":15.44187507,"ECCENTRICITY":0.0004179,"INCLINATION":97.3891,"RA_OF_ASC_NODE":200.4482,"ARG_OF_PERICENTER":167.9433,"MEAN_ANOMALY":192.1915,"EPHEMERIS_TYPE":0,"CLASSIFICATION_TYPE":"U","NORAD_CAT_ID":62636,"ELEMENT_SET_NO":999,"REV_AT_EPOCH":7122,"BSTAR":0.002191,"MEAN_MOTION_DOT":0.00101614,"MEAN_MOTION_DDOT":0},{"OBJECT_NAME":"FLOCK 4G-24","OBJECT_ID":"2025-009AE","EPOCH":"2026-04-27T04:09:42.723360","MEAN_MOTION":15.28908242,"ECCENTRICITY":0.0004584,"INCLINATION":97.4024,"RA_OF_ASC_NODE":199.6826,"ARG_OF_PERICENTER":110.7932,"MEAN_ANOMALY":249.3799,"EPHEMERIS_TYPE":0,"CLASSIFICATION_TYPE":"U","NORAD_CAT_ID":62637,"ELEMENT_SET_NO":999,"REV_AT_EPOCH":7113,"BSTAR":0.00050064,"MEAN_MOTION_DOT":0.00014,"MEAN_MOTION_DDOT":0},{"OBJECT_NAME":"FLOCK 4G-3","OBJECT_ID":"2025-009AG","EPOCH":"2026-04-27T04:53:34.703232","MEAN_MOTION":15.28307708,"ECCENTRICITY":0.0004509,"INCLINATION":97.4029,"RA_OF_ASC_NODE":199.4852,"ARG_OF_PERICENTER":116.7283,"MEAN_ANOMALY":243.4419,"EPHEMERIS_TYPE":0,"CLASSIFICATION_TYPE":"U","NORAD_CAT_ID":62639,"ELEMENT_SET_NO":999,"REV_AT_EPOCH":7111,"BSTAR":0.00041291,"MEAN_MOTION_DOT":0.00011319,"MEAN_MOTION_DDOT":0},{"OBJECT_NAME":"FLOCK 4G-27","OBJECT_ID":"2025-009AJ","EPOCH":"2026-04-27T03:44:26.037888","MEAN_MOTION":15.28287161,"ECCENTRICITY":0.0003765,"INCLINATION":97.3941,"RA_OF_ASC_NODE":198.8859,"ARG_OF_PERICENTER":120.216,"MEAN_ANOMALY":239.9453,"EPHEMERIS_TYPE":0,"CLASSIFICATION_TYPE":"U","NORAD_CAT_ID":62641,"ELEMENT_SET_NO":999,"REV_AT_EPOCH":7110,"BSTAR":0.00052911,"MEAN_MOTION_DOT":0.00014521,"MEAN_MOTION_DDOT":0},{"OBJECT_NAME":"FLOCK 4G-29","OBJECT_ID":"2025-009AK","EPOCH":"2026-04-27T05:05:09.248640","MEAN_MOTION":15.28405958,"ECCENTRICITY":0.0004499,"INCLINATION":97.4024,"RA_OF_ASC_NODE":199.4506,"ARG_OF_PERICENTER":113.678,"MEAN_ANOMALY":246.4933,"EPHEMERIS_TYPE":0,"CLASSIFICATION_TYPE":"U","NORAD_CAT_ID":62642,"ELEMENT_SET_NO":999,"REV_AT_EPOCH":7111,"BSTAR":0.00044735,"MEAN_MOTION_DOT":0.00012308,"MEAN_MOTION_DDOT":0},{"OBJECT_NAME":"FLOCK 4G-22","OBJECT_ID":"2025-009AN","EPOCH":"2026-04-26T18:21:33.612768","MEAN_MOTION":15.28261423,"ECCENTRICITY":0.00039876,"INCLINATION":97.4011,"RA_OF_ASC_NODE":199.0711,"ARG_OF_PERICENTER":114.9958,"MEAN_ANOMALY":245.1696,"EPHEMERIS_TYPE":0,"CLASSIFICATION_TYPE":"U","NORAD_CAT_ID":62645,"ELEMENT_SET_NO":999,"REV_AT_EPOCH":7106,"BSTAR":0.00045102046,"MEAN_MOTION_DOT":0.00012354,"MEAN_MOTION_DDOT":0},{"OBJECT_NAME":"FLOCK 4G-25","OBJECT_ID":"2025-009AP","EPOCH":"2026-04-27T04:58:22.092096","MEAN_MOTION":15.28455083,"ECCENTRICITY":0.0003536,"INCLINATION":97.4016,"RA_OF_ASC_NODE":199.5589,"ARG_OF_PERICENTER":120.1189,"MEAN_ANOMALY":240.0402,"EPHEMERIS_TYPE":0,"CLASSIFICATION_TYPE":"U","NORAD_CAT_ID":62646,"ELEMENT_SET_NO":999,"REV_AT_EPOCH":7113,"BSTAR":0.00041635,"MEAN_MOTION_DOT":0.00011465,"MEAN_MOTION_DDOT":0},{"OBJECT_NAME":"FLOCK 4G-23","OBJECT_ID":"2025-009AQ","EPOCH":"2026-04-27T04:21:38.653632","MEAN_MOTION":15.28820699,"ECCENTRICITY":0.0002634,"INCLINATION":97.3943,"RA_OF_ASC_NODE":199.0419,"ARG_OF_PERICENTER":135.7356,"MEAN_ANOMALY":224.4095,"EPHEMERIS_TYPE":0,"CLASSIFICATION_TYPE":"U","NORAD_CAT_ID":62647,"ELEMENT_SET_NO":999,"REV_AT_EPOCH":7112,"BSTAR":0.0016996,"MEAN_MOTION_DOT":0.00047783,"MEAN_MOTION_DDOT":0},{"OBJECT_NAME":"FLOCK 4G-34","OBJECT_ID":"2025-009AT","EPOCH":"2026-04-27T04:49:57.268128","MEAN_MOTION":15.28241766,"ECCENTRICITY":0.000344,"INCLINATION":97.3967,"RA_OF_ASC_NODE":199.1166,"ARG_OF_PERICENTER":119.832,"MEAN_ANOMALY":240.3262,"EPHEMERIS_TYPE":0,"CLASSIFICATION_TYPE":"U","NORAD_CAT_ID":62650,"ELEMENT_SET_NO":999,"REV_AT_EPOCH":7112,"BSTAR":0.00047647,"MEAN_MOTION_DOT":0.00013048,"MEAN_MOTION_DDOT":0}]
